{
  "norad_id": 57935,
  "name": "STARLINK-30712",
  "history": [
    {
      "epoch": "2026-03-28T21:24:33.614208Z",
      "apogee_km": 476.09184752524834,
      "perigee_km": 474.37850448124846,
      "latitude_deg": -4.879656444197826e-06,
      "longitude_deg": 147.56065100225777,
      "height_km": 476.274441436383,
      "semi_major_axis_km": 6853.372176003249,
      "eccentricity": 0.000125,
      "inclination_deg": 53.1615,
      "raan_deg": 295.0067,
      "arg_perigee_deg": 99.4723,
      "mean_anomaly_deg": 260.6419,
      "mean_motion_rev_day": 15.30193266
    },
    {
      "epoch": "2026-03-29T20:55:21.692640Z",
      "apogee_km": 476.0783721933367,
      "perigee_km": 474.4047771454025,
      "latitude_deg": 3.1134453655015053e-05,
      "longitude_deg": 149.3445922515104,
      "height_km": 476.243492582524,
      "semi_major_axis_km": 6853.378574669369,
      "eccentricity": 0.0001221,
      "inclination_deg": 53.1622,
      "raan_deg": 290.4566,
      "arg_perigee_deg": 97.1074,
      "mean_anomaly_deg": 263.0066,
      "mean_motion_rev_day": 15.30191123
    },
    {
      "epoch": "2026-03-30T06:19:40.977408Z",
      "apogee_km": 476.076646150138,
      "perigee_km": 474.41127457676885,
      "latitude_deg": -1.4798597896316757e-05,
      "longitude_deg": 6.05784092033468,
      "height_km": 476.23223237768053,
      "semi_major_axis_km": 6853.380960363453,
      "eccentricity": 0.0001215,
      "inclination_deg": 53.1622,
      "raan_deg": 288.6365,
      "arg_perigee_deg": 96.1965,
      "mean_anomaly_deg": 263.9174,
      "mean_motion_rev_day": 15.30190324
    },
    {
      "epoch": "2026-03-30T22:00:15.665472Z",
      "apogee_km": 476.0732600860938,
      "perigee_km": 474.6082606800346,
      "latitude_deg": 2.4650905319533186e-05,
      "longitude_deg": 127.23623460854641,
      "height_km": 476.12605236839335,
      "semi_major_axis_km": 6853.477760383064,
      "eccentricity": 0.00010688,
      "inclination_deg": 53.1613,
      "raan_deg": 285.6032,
      "arg_perigee_deg": 81.1103,
      "mean_anomaly_deg": 279.0019,
      "mean_motion_rev_day": 15.30157905
    },
    {
      "epoch": "2026-03-31T05:50:30.431328Z",
      "apogee_km": 475.6491972281301,
      "perigee_km": 474.91725194814353,
      "latitude_deg": 2.7439846716093384e-05,
      "longitude_deg": 7.836340707638839,
      "height_km": 476.2567946736198,
      "semi_major_axis_km": 6853.420224588136,
      "eccentricity": 5.34e-05,
      "inclination_deg": 53.1612,
      "raan_deg": 284.0867,
      "arg_perigee_deg": 101.7287,
      "mean_anomaly_deg": 258.3774,
      "mean_motion_rev_day": 15.30177174
    },
    {
      "epoch": "2026-03-31T23:05:04.342848Z",
      "apogee_km": 475.786737135727,
      "perigee_km": 474.66004468746087,
      "latitude_deg": -4.455976080357667e-05,
      "longitude_deg": 105.14935536419115,
      "height_km": 476.07294326977836,
      "semi_major_axis_km": 6853.360390911594,
      "eccentricity": 8.22e-05,
      "inclination_deg": 53.161,
      "raan_deg": 280.7492,
      "arg_perigee_deg": 84.9855,
      "mean_anomaly_deg": 275.1239,
      "mean_motion_rev_day": 15.30197213
    },
    {
      "epoch": "2026-04-02T18:58:33.666816Z",
      "apogee_km": 475.77218529082893,
      "perigee_km": 474.67564754420255,
      "latitude_deg": -3.0016091454545647e-06,
      "longitude_deg": 156.47984597701816,
      "height_km": 476.14894643130094,
      "semi_major_axis_km": 6853.360916417515,
      "eccentricity": 8e-05,
      "inclination_deg": 53.1514,
      "raan_deg": 272.2544,
      "arg_perigee_deg": 267.3512,
      "mean_anomaly_deg": 92.7397,
      "mean_motion_rev_day": 15.30197037
    },
    {
      "epoch": "2026-04-02T18:58:33.667680Z",
      "apogee_km": 475.77225382443794,
      "perigee_km": 474.6755790105926,
      "latitude_deg": -2.0512956286559076e-06,
      "longitude_deg": 156.47984307537462,
      "height_km": 476.1489495950495,
      "semi_major_axis_km": 6853.360916417515,
      "eccentricity": 8.001e-05,
      "inclination_deg": 53.1514,
      "raan_deg": 272.2544,
      "arg_perigee_deg": 267.3512,
      "mean_anomaly_deg": 92.7397,
      "mean_motion_rev_day": 15.30197037
    },
    {
      "epoch": "2026-04-03T18:29:16.649376Z",
      "apogee_km": 475.2598254500663,
      "perigee_km": 474.86782236293766,
      "latitude_deg": 7.286821182342693e-05,
      "longitude_deg": 158.28710754156447,
      "height_km": 476.1532057181107,
      "semi_major_axis_km": 6853.200823906502,
      "eccentricity": 2.86e-05,
      "inclination_deg": 53.1612,
      "raan_deg": 267.7063,
      "arg_perigee_deg": 165.3479,
      "mean_anomaly_deg": 194.7531,
      "mean_motion_rev_day": 15.30250656
    },
    {
      "epoch": "2026-04-04T16:26:06.396864Z",
      "apogee_km": 475.66176730280404,
      "perigee_km": 474.87225516070976,
      "latitude_deg": 2.154552013246345e-05,
      "longitude_deg": -176.07565006987073,
      "height_km": 475.90905709427784,
      "semi_major_axis_km": 6853.404011231756,
      "eccentricity": 5.76e-05,
      "inclination_deg": 53.1597,
      "raan_deg": 263.4522,
      "arg_perigee_deg": 49.3638,
      "mean_anomaly_deg": 310.7413,
      "mean_motion_rev_day": 15.30182604
    },
    {
      "epoch": "2026-04-05T14:22:50.704608Z",
      "apogee_km": 475.9255916748043,
      "perigee_km": 474.52627203137854,
      "latitude_deg": 1.416477918615805e-06,
      "longitude_deg": -150.40215749193803,
      "height_km": 475.9091782077651,
      "semi_major_axis_km": 6853.362931853091,
      "eccentricity": 0.00010209,
      "inclination_deg": 53.1608,
      "raan_deg": 259.2116,
      "arg_perigee_deg": 72.0763,
      "mean_anomaly_deg": 288.0349,
      "mean_motion_rev_day": 15.30196362
    },
    {
      "epoch": "2026-04-05T17:30:56.393568Z",
      "apogee_km": 475.8741500456081,
      "perigee_km": 474.4637396821563,
      "latitude_deg": 2.875895047684061e-05,
      "longitude_deg": 161.8376123178952,
      "height_km": 476.0584121602056,
      "semi_major_axis_km": 6853.305944863882,
      "eccentricity": 0.0001029,
      "inclination_deg": 53.161,
      "raan_deg": 258.6038,
      "arg_perigee_deg": 89.2652,
      "mean_anomaly_deg": 270.8467,
      "mean_motion_rev_day": 15.30215448
    },
    {
      "epoch": "2026-04-05T17:30:56.395296Z",
      "apogee_km": 475.8743556447871,
      "perigee_km": 474.4635340829782,
      "latitude_deg": 2.5990954638708026e-05,
      "longitude_deg": 161.83760303598476,
      "height_km": 476.0584095234761,
      "semi_major_axis_km": 6853.305944863882,
      "eccentricity": 0.00010293,
      "inclination_deg": 53.161,
      "raan_deg": 258.6038,
      "arg_perigee_deg": 89.2652,
      "mean_anomaly_deg": 270.8467,
      "mean_motion_rev_day": 15.30215448
    },
    {
      "epoch": "2026-04-07T10:16:20.359488Z",
      "apogee_km": 476.115985412157,
      "perigee_km": 474.33438537844086,
      "latitude_deg": 3.056591060109922e-05,
      "longitude_deg": -99.0745649912375,
      "height_km": 476.01847391571084,
      "semi_major_axis_km": 6853.362185395298,
      "eccentricity": 0.00012998,
      "inclination_deg": 53.1615,
      "raan_deg": 250.7153,
      "arg_perigee_deg": 83.2362,
      "mean_anomaly_deg": 276.8787,
      "mean_motion_rev_day": 15.30196612
    },
    {
      "epoch": "2026-04-07T16:32:33.302112Z",
      "apogee_km": 476.133806870459,
      "perigee_km": 474.3300001750522,
      "latitude_deg": 2.5568261191472594e-05,
      "longitude_deg": 165.40009241558374,
      "height_km": 476.03512429806574,
      "semi_major_axis_km": 6853.368903522755,
      "eccentricity": 0.0001316,
      "inclination_deg": 53.162,
      "raan_deg": 249.5014,
      "arg_perigee_deg": 83.9529,
      "mean_anomaly_deg": 276.1622,
      "mean_motion_rev_day": 15.30194362
    },
    {
      "epoch": "2026-04-08T16:03:21.180096Z",
      "apogee_km": 476.1240756983616,
      "perigee_km": 474.34850374645976,
      "latitude_deg": 2.557893357544769e-05,
      "longitude_deg": 167.18444095139645,
      "height_km": 476.0624793057918,
      "semi_major_axis_km": 6853.37328972241,
      "eccentricity": 0.00012954,
      "inclination_deg": 53.1625,
      "raan_deg": 244.9509,
      "arg_perigee_deg": 85.3404,
      "mean_anomaly_deg": 274.7745,
      "mean_motion_rev_day": 15.30192893
    }
  ]
}